STARLINK-3140           
1 49460U 21104BE  26068.65028843  .00000052  00000+0  21335-4 0  9993
2 49460  53.2156 219.2981 0001125  89.4741 270.6380 15.08838120238769
STARLINK-6085           
1 57115U 23090Q   26068.53746065  .00027564  00000+0  15302-2 0  9997
2 57115  42.9983 264.1938 0019382 205.4773 154.5119 15.13089153150525
